start=new Date('2022-08-09T00:00:00.000Z').valueOf();
sats=[{"REV_AT_EPOCH":"2335","TIME_SYSTEM":"UTC","FILE":"3532223","REF_FRAME":"TEME","BSTAR":"-0.00289140000000","TLE_LINE1":"1 52134U 22029AY  22220.91667824 -.00046038  00000-0 -28914-2 0  9990","ELEMENT_SET_NO":"999","TLE_LINE2":"2 52134  53.2161 184.4185 0002175  57.1351  33.0683 15.08860346 23350","RCS_SIZE":"LARGE","CENTER_NAME":"EARTH","MEAN_ELEMENT_THEORY":"SGP4","SITE":"AFETR","MEAN_MOTION":"15.08860346","COUNTRY_CODE":"US","PERIAPSIS":"538.179","LAUNCH_DATE":"2022-03-19","EPHEMERIS_TYPE":"0","RA_OF_ASC_NODE":"184.4185","APOAPSIS":"541.188","MEAN_MOTION_DDOT":"0.0000000000000","OBJECT_NAME":"STARLINK-3721","GP_ID":"209837702","EPOCH":"2022-08-08T22:00:00.999936","ECCENTRICITY":"0.00021750","NORAD_CAT_ID":"52134","ARG_OF_PERICENTER":"57.1351","MEAN_MOTION_DOT":"-0.00046038","SEMIMAJOR_AXIS":"6917.818","CLASSIFICATION_TYPE":"U","MEAN_ANOMALY":"33.0683","OBJECT_TYPE":"PAYLOAD","DECAY_DATE":null,"PERIOD":"95.436","OBJECT_ID":"2022-029AY","INCLINATION":"53.2161"},{"COUNTRY_CODE":"US","PERIAPSIS":"538.414","RCS_SIZE":"LARGE","MEAN_ELEMENT_THEORY":"SGP4","CENTER_NAME":"EARTH","MEAN_MOTION":"15.08865153","SITE":"AFETR","FILE":"3532305","REF_FRAME":"TEME","BSTAR":"-0.00115170000000","TLE_LINE1":"1 52135U 22029AZ  22220.91667824 -.00018583  00000-0 -11517-2 0  9996","ELEMENT_SET_NO":"999","TLE_LINE2":"2 52135  53.2159 184.4140 0001814  60.8368 109.4338 15.08865153  1304","REV_AT_EPOCH":"130","TIME_SYSTEM":"UTC","SEMIMAJOR_AXIS":"6917.804","CLASSIFICATION_TYPE":"U","OBJECT_TYPE":"PAYLOAD","MEAN_ANOMALY":"109.4338","DECAY_DATE":null,"PERIOD":"95.436","OBJECT_ID":"2022-029AZ","INCLINATION":"53.2159","ECCENTRICITY":"0.00018140","NORAD_CAT_ID":"52135","ARG_OF_PERICENTER":"60.8368","MEAN_MOTION_DOT":"-0.00018583","APOAPSIS":"540.923","MEAN_MOTION_DDOT":"0.0000000000000","OBJECT_NAME":"STARLINK-3729","GP_ID":"209863546","EPOCH":"2022-08-08T22:00:00.999936","LAUNCH_DATE":"2022-03-19","EPHEMERIS_TYPE":"0","RA_OF_ASC_NODE":"184.4140"},{"ECCENTRICITY":"0.00017040","NORAD_CAT_ID":"52136","ARG_OF_PERICENTER":"65.4516","MEAN_MOTION_DOT":"0.00019573","SEMIMAJOR_AXIS":"6917.885","CLASSIFICATION_TYPE":"U","OBJECT_TYPE":"PAYLOAD","MEAN_ANOMALY":"64.8377","PERIOD":"95.438","DECAY_DATE":null,"OBJECT_ID":"2022-029BA","INCLINATION":"53.2153","LAUNCH_DATE":"2022-03-19","EPHEMERIS_TYPE":"0","RA_OF_ASC_NODE":"184.4143","APOAPSIS":"540.928","MEAN_MOTION_DDOT":"0.0000000000000","OBJECT_NAME":"STARLINK-3720","GP_ID":"209862294","EPOCH":"2022-08-08T22:00:00.999936","RCS_SIZE":"LARGE","CENTER_NAME":"EARTH","MEAN_ELEMENT_THEORY":"SGP4","MEAN_MOTION":"15.08838649","SITE":"AFETR","COUNTRY_CODE":"US","PERIAPSIS":"538.571","REV_AT_EPOCH":"130","TIME_SYSTEM":"UTC","FILE":"3532305","REF_FRAME":"TEME","BSTAR":"0.00124450000000","TLE_LINE1":"1 52136U 22029BA  22220.91667824  .00019573  00000-0  12445-2 0  9996","ELEMENT_SET_NO":"999","TLE_LINE2":"2 52136  53.2153 184.4143 0001704  65.4516  64.8377 15.08838649  1303"},{"DECAY_DATE":null,"PERIOD":"95.436","OBJECT_ID":"2022-029BB","INCLINATION":"53.2159","SEMIMAJOR_AXIS":"6917.823","CLASSIFICATION_TYPE":"U","OBJECT_TYPE":"PAYLOAD","MEAN_ANOMALY":"123.5842","NORAD_CAT_ID":"52137","ARG_OF_PERICENTER":"66.6781","MEAN_MOTION_DOT":"-0.00003263","ECCENTRICITY":"0.00018280","OBJECT_NAME":"STARLINK-3733","GP_ID":"209862544","EPOCH":"2022-08-08T22:00:00.999936","APOAPSIS":"540.953","MEAN_MOTION_DDOT":"0.0000000000000","RA_OF_ASC_NODE":"184.4133","EPHEMERIS_TYPE":"0","LAUNCH_DATE":"2022-03-19","PERIAPSIS":"538.424","COUNTRY_CODE":"US","CENTER_NAME":"EARTH","MEAN_ELEMENT_THEORY":"SGP4","MEAN_MOTION":"15.08858648","SITE":"AFETR","RCS_SIZE":"LARGE","TLE_LINE2":"2 52137  53.2159 184.4133 0001828  66.6781 123.5842 15.08858648  1304","FILE":"3532305","BSTAR":"-0.00018692000000","REF_FRAME":"TEME","ELEMENT_SET_NO":"999","TLE_LINE1":"1 52137U 22029BB  22220.91667824 -.00003263  00000-0 -18692-3 0  9999","REV_AT_EPOCH":"130","TIME_SYSTEM":"UTC"},{"ECCENTRICITY":"0.00017840","MEAN_MOTION_DOT":"-0.00032703","ARG_OF_PERICENTER":"67.9771","NORAD_CAT_ID":"52138","OBJECT_TYPE":"PAYLOAD","MEAN_ANOMALY":"82.2781","CLASSIFICATION_TYPE":"U","SEMIMAJOR_AXIS":"6917.774","INCLINATION":"53.2157","OBJECT_ID":"2022-029BC","PERIOD":"95.435","DECAY_DATE":null,"LAUNCH_DATE":"2022-03-19","EPHEMERIS_TYPE":"0","RA_OF_ASC_NODE":"184.4147","MEAN_MOTION_DDOT":"0.0000000000000","APOAPSIS":"540.873","EPOCH":"2022-08-08T22:00:00.999936","GP_ID":"209863795","OBJECT_NAME":"STARLINK-3723","RCS_SIZE":"LARGE","MEAN_MOTION":"15.08874931","SITE":"AFETR","CENTER_NAME":"EARTH","MEAN_ELEMENT_THEORY":"SGP4","COUNTRY_CODE":"US","PERIAPSIS":"538.404","TIME_SYSTEM":"UTC","REV_AT_EPOCH":"130","ELEMENT_SET_NO":"999","TLE_LINE1":"1 52138U 22029BC  22220.91667824 -.00032703  00000-0 -20440-2 0  9994","FILE":"3532305","BSTAR":"-0.00204400000000","REF_FRAME":"TEME","TLE_LINE2":"2 52138  53.2157 184.4147 0001784  67.9771  82.2781 15.08874931  1308"},{"TLE_LINE2":"2 52139  53.2150 194.4201 0002207  55.2875 199.9573 15.08867676  1303","FILE":"3532305","REF_FRAME":"TEME","BSTAR":"-0.00142550000000","ELEMENT_SET_NO":"999","TLE_LINE1":"1 52139U 22029BD  22220.91667824 -.00022921  00000-0 -14255-2 0  9993","TIME_SYSTEM":"UTC","REV_AT_EPOCH":"130","PERIAPSIS":"538.134","COUNTRY_CODE":"US","MEAN_MOTION":"15.08867676","SITE":"AFETR","MEAN_ELEMENT_THEORY":"SGP4","CENTER_NAME":"EARTH","RCS_SIZE":"LARGE","EPOCH":"2022-08-08T22:00:00.999936","OBJECT_NAME":"STARLINK-3730","GP_ID":"209864046","MEAN_MOTION_DDOT":"0.0000000000000","APOAPSIS":"541.188","RA_OF_ASC_NODE":"194.4201","LAUNCH_DATE":"2022-03-19","EPHEMERIS_TYPE":"0","INCLINATION":"53.2150","DECAY_DATE":null,"PERIOD":"95.436","OBJECT_ID":"2022-029BD","CLASSIFICATION_TYPE":"U","OBJECT_TYPE":"PAYLOAD","MEAN_ANOMALY":"199.9573","SEMIMAJOR_AXIS":"6917.796","MEAN_MOTION_DOT":"-0.00022921","NORAD_CAT_ID":"52139","ARG_OF_PERICENTER":"55.2875","ECCENTRICITY":"0.00022070"},{"MEAN_ANOMALY":"138.7905","OBJECT_TYPE":"PAYLOAD","CLASSIFICATION_TYPE":"U","SEMIMAJOR_AXIS":"6917.773","INCLINATION":"53.2161","OBJECT_ID":"2022-029BE","PERIOD":"95.435","DECAY_DATE":null,"ECCENTRICITY":"0.00019680","MEAN_MOTION_DOT":"-0.00033230","ARG_OF_PERICENTER":"71.4643","NORAD_CAT_ID":"52140","MEAN_MOTION_DDOT":"0.0000000000000","APOAPSIS":"540.999","EPOCH":"2022-08-08T22:00:00.999936","GP_ID":"209862794","OBJECT_NAME":"STARLINK-3682","EPHEMERIS_TYPE":"0","LAUNCH_DATE":"2022-03-19","RA_OF_ASC_NODE":"184.4142","COUNTRY_CODE":"US","PERIAPSIS":"538.276","RCS_SIZE":"LARGE","SITE":"AFETR","MEAN_MOTION":"15.08875196","MEAN_ELEMENT_THEORY":"SGP4","CENTER_NAME":"EARTH","TLE_LINE1":"1 52140U 22029BE  22220.91667824 -.00033230  00000-0 -20774-2 0  9993","ELEMENT_SET_NO":"999","REF_FRAME":"TEME","FILE":"3532305","BSTAR":"-0.00207740000000","TLE_LINE2":"2 52140  53.2161 184.4142 0001968  71.4643 138.7905 15.08875196  1302","TIME_SYSTEM":"UTC","REV_AT_EPOCH":"130"},{"GP_ID":"209864960","OBJECT_NAME":"STARLINK-3810","EPOCH":"2022-08-08T22:00:00.999936","APOAPSIS":"541.414","MEAN_MOTION_DDOT":"0.0000000000000","RA_OF_ASC_NODE":"224.4218","EPHEMERIS_TYPE":"0","LAUNCH_DATE":"2022-04-21","OBJECT_ID":"2022-041A","DECAY_DATE":null,"PERIOD":"95.439","INCLINATION":"53.2143","SEMIMAJOR_AXIS":"6917.959","OBJECT_TYPE":"PAYLOAD","MEAN_ANOMALY":"185.4593","CLASSIFICATION_TYPE":"U","ARG_OF_PERICENTER":"44.8226","NORAD_CAT_ID":"52261","MEAN_MOTION_DOT":"0.00041378","ECCENTRICITY":"0.00022980","TLE_LINE2":"2 52261  53.2143 224.4218 0002298  44.8226 185.4593 15.08814211  1306","TLE_LINE1":"1 52261U 22041A   22220.91667824  .00041378  00000-0  26045-2 0  9998","ELEMENT_SET_NO":"999","FILE":"3532305","BSTAR":"0.00260450000000","REF_FRAME":"TEME","REV_AT_EPOCH":"130","TIME_SYSTEM":"UTC","PERIAPSIS":"538.234","COUNTRY_CODE":"US","CENTER_NAME":"EARTH","MEAN_ELEMENT_THEORY":"SGP4","SITE":"AFETR","MEAN_MOTION":"15.08814211","RCS_SIZE":"LARGE"},{"OBJECT_ID":"2022-041B","PERIOD":"95.438","DECAY_DATE":null,"INCLINATION":"53.2136","SEMIMAJOR_AXIS":"6917.911","MEAN_ANOMALY":"157.5185","OBJECT_TYPE":"PAYLOAD","CLASSIFICATION_TYPE":"U","ARG_OF_PERICENTER":"47.4543","NORAD_CAT_ID":"52262","MEAN_MOTION_DOT":"0.00040543","ECCENTRICITY":"0.00021840","GP_ID":"209864188","OBJECT_NAME":"STARLINK-3761","EPOCH":"2022-08-08T22:00:00.999936","APOAPSIS":"541.287","MEAN_MOTION_DDOT":"0.0000000000000","RA_OF_ASC_NODE":"224.4221","EPHEMERIS_TYPE":"0","LAUNCH_DATE":"2022-04-21","PERIAPSIS":"538.265","COUNTRY_CODE":"US","MEAN_ELEMENT_THEORY":"SGP4","CENTER_NAME":"EARTH","MEAN_MOTION":"15.08829994","SITE":"AFETR","RCS_SIZE":"LARGE","TLE_LINE2":"2 52262  53.2136 224.4221 0002184  47.4543 157.5185 15.08829994  1309","TLE_LINE1":"1 52262U 22041B   22220.91667824  .00040543  00000-0  25515-2 0  9993","ELEMENT_SET_NO":"999","BSTAR":"0.00255150000000","FILE":"3532305","REF_FRAME":"TEME","REV_AT_EPOCH":"130","TIME_SYSTEM":"UTC"},{"ECCENTRICITY":"0.00017220","ARG_OF_PERICENTER":"36.4989","NORAD_CAT_ID":"52263","MEAN_MOTION_DOT":"0.00037338","SEMIMAJOR_AXIS":"6917.923","MEAN_ANOMALY":"173.7695","OBJECT_TYPE":"PAYLOAD","CLASSIFICATION_TYPE":"U","OBJECT_ID":"2022-041C","DECAY_DATE":null,"PERIOD":"95.438","INCLINATION":"53.2143","LAUNCH_DATE":"2022-04-21","EPHEMERIS_TYPE":"0","RA_OF_ASC_NODE":"224.4219","APOAPSIS":"540.980","MEAN_MOTION_DDOT":"0.0000000000000","GP_ID":"209864703","OBJECT_NAME":"STARLINK-3786","EPOCH":"2022-08-08T22:00:00.999936","RCS_SIZE":"LARGE","MEAN_ELEMENT_THEORY":"SGP4","CENTER_NAME":"EARTH","SITE":"AFETR","MEAN_MOTION":"15.08825913","COUNTRY_CODE":"US","PERIAPSIS":"538.597","REV_AT_EPOCH":"130","TIME_SYSTEM":"UTC","ELEMENT_SET_NO":"999","TLE_LINE1":"1 52263U 22041C   22220.91667824  .00037338  00000-0  23526-2 0  9992","BSTAR":"0.00235260000000","FILE":"3532305","REF_FRAME":"TEME","TLE_LINE2":"2 52263  53.2143 224.4219 0001722  36.4989 173.7695 15.08825913  1307"}];
